LEMUR-2-ANDIS           
1 42838U 17042P   26068.55941107  .00023598  00000+0  79875-3 0  9998
2 42838  97.3659 249.7950 0009101   4.3248 355.8070 15.30557934473198
STARLINK-31031          
1 58711U 24002G   26068.75545791  .00001526  00000+0  63620-4 0  9999
2 58711  53.1592 229.7606 0000867  72.8998 287.2098 15.30199192122028
